EOSSAT-1                
1 55053U 23001AW  26068.73619225  .00007695  00000+0  24844-3 0  9992
2 55053  97.3357 130.2294 0011263 110.3168 249.9285 15.32339828176689
STARLINK-35791          
1 66896U 25283U   26068.27018726  .00026498  00000+0  90370-3 0  9990
2 66896  53.1626  25.8507 0001187  53.7672 306.3438 15.30196711 15786
